name,a,e,i,om,w,q,ad,per_y,data_arc,condition_code,n_obs_used,H,neo,pha,diameter,extent,albedo,rot_per,GM,BV,UB,IR,spec_B,spec_T,G,moid,class,n,per,ma
,3.137515452151339,0.1450072639625441,2.330716326295009,91.76888114880116,11.63512901253019,2.682552920794668,3.592477983508009,5.5575964996282,7674.0,0.0,500,15.1,N,N,5.037,,0.084,,,,,,,,,1.69965,MBA,0.1773475788379912,2029.912121489201,244.6438277210376
,2.995956660551381,0.0184970500344751,11.5646617669859,124.7526783402755,160.1104248185458,2.940540300300043,3.051373020802719,5.18574899829659,6436.0,0.0,891,14.2,N,N,5.441,,0.18,,,,,,,,,1.92555,MBA,0.1900644022090763,1894.094821627828,225.253598620055
,2.665149098784557,0.1727171240400875,14.85786726257922,103.3616067668651,201.3244483997138,2.204832211304458,3.125465986264657,4.35101386782151,11876.0,0,2357,12.5,N,N,9.491,,0.148,,,,,,,,,1.19446,MBA,0.2265279572324243,1589.207815221807,29.3388606382019
,2.8500309609801,0.6760845039826714,3.845364392865911,189.7024413979797,302.8967032625178,0.9231691923906128,4.776892729569588,4.81152303357416,1943.0,0,102,19.6,Y,Y,0.34,,0.185,,,,,,,,,0.0251522,APO,0.204847046660691,1757.408788012964,326.2268665217072
,2.956603686669677,0.061901266197592,11.62910597238757,196.7470392050948,182.0684026555404,2.773586174820355,3.139621198518999,5.08391023108908,6375.0,0,418,15.6,N,N,4.755,,0.054,,,,,,,,,1.7746,MBA,0.1938716929618984,1856.898211905288,248.5315323928542
,2.398190552574706,0.1461463757613616,2.865485366083331,195.5915486616208,66.18160612945722,2.047703694930775,2.748677410218637,3.71393017129064,8067.0,0,888,15.7,N,N,4.407,,0.07,,,,,,,,,1.03395,MBA,0.2653863260506698,1356.512995063905,125.3359731048791
,3.009662556543475,0.1249967305844567,10.61081675239775,95.50400035364098,315.2360494000088,2.633464576813083,3.385860536273867,5.22137529638273,6379.0,0,348,15.2,N,N,5.984,,0.041,,,,,,,,,1.657,MBA,0.1887675616901889,1907.107327003794,52.29323493734515
,2.526718498992574,0.1549259110236681,15.9813206626277,54.48283561115181,319.0632952080846,2.135264333635794,2.918172664349354,4.01646042606814,6428.0,0,482,15.9,N,N,1.81,,0.31,,,,,,,,,1.1617,MBA,0.2453967371296677,1467.012170621388,140.2404548885681
,2.550037269832827,0.210534726817456,6.342931178787187,10.58667806871835,292.4141390480677,2.013165869854242,3.086908669811413,4.0721896341489,8742.0,0,803,15.6,N,N,2.127,,0.246,,,,,,,,,1.0078,MBA,0.242038404867546,1487.367263872887,356.1985854018995
Maartje,3.008748842300129,0.0964845862504388,9.203391592763472,211.7901289125198,98.34975654899957,2.718450955119314,3.299046729480943,5.21899771279783,36258.0,0,2576,9.9,N,N,39.013,,0.136,22.93,,,,,,,,1.72353,MBA,0.1888535572549955,1906.238914599409,247.6014227198003
,3.105960829143806,0.1071295604495545,11.50076716599264,15.99836006362036,1.183126883587243,2.773220610744096,3.438701047543515,5.47396685905532,8416.0,0,1217,13.9,N,N,5.755,,0.177,,,,,,,,,1.77403,MBA,0.1800570424969019,1999.366395269956,38.57221933450661
,2.337607974607847,0.1059165046282299,13.51875672869323,10.58092850549357,163.8326546006471,2.090016708746308,2.585199240469386,3.5740919597091,8157.0,0,801,15.2,N,N,4.813,,0.101,,,,,,,,,1.0964,MBA,0.2757697044392159,1305.437088283749,300.7140966201283
,2.386764150981862,0.2189052134589545,3.449741350993365,316.6432585860585,20.65339751654463,1.864289035034997,2.909239266928727,3.6874187653602,8602.0,0.0,479,16.2,N,N,1.374,,0.34,3.5,,,,,,,,0.854459,MBA,0.2672943720487027,1346.829704047812,147.5160408239845
Sandvicensis,2.688174769686871,0.1508299179517228,12.63805106234168,3.260112745115803,262.1800266247366,2.282717589735109,3.093631949638634,4.40752163941447,16632.0,0,1689,13.2,N,N,5.303,,0.361,,,,,,,,,1.30929,MBA,0.2236236969442299,1609.847278796135,208.4367034166938
,2.314182738448821,0.1052794945183398,7.148894919851891,105.121177591455,111.965018772453,2.070546749521862,2.557818727375781,3.52050266193686,7709.0,0,1405,15.0,N,N,2.308,,0.399,,,,,,,,,1.07502,MBA,0.2799674870364391,1285.863597272437,97.76269489058436
,2.775738703532316,0.0392584733211333,5.820104312838874,148.2071166044831,198.9480217365616,2.666767439693255,2.884709967371376,4.62462022128878,7510.0,0,199,16.4,N,N,3.059,,0.063,,,,,,,,,1.65851,MBA,0.2131258862793463,1689.142535825725,150.9883959330194
Karnten,2.64526361741789,0.047512377044621,3.703159133657914,115.7765153619704,215.3188467281835,2.519580855044713,2.770946379791067,4.30240847519449,23711.0,0,1544,14.3,N,N,5.6,,0.118,,,,,,,,,1.50836,MBA,0.2290871006437856,1571.454695564788,57.72016124328503
,2.285279216893644,0.1726446607894047,5.286602778432426,321.5390167109563,69.3255172816897,1.890737961683965,2.679820472103324,3.45475383268567,7287.0,0,617,15.9,N,N,2.954,,0.116,,,,,,,,,0.902875,MBA,0.2852956624702107,1261.84883738844,27.46026868557301
,2.551506692129783,0.2028647213363082,10.75571744849202,355.83254625431,202.88715536,2.033895998043149,3.069117386216416,4.07570995221367,6221.0,0,97,16.5,N,N,2.604,,0.072,,,,,,,,,1.03776,MBA,0.2418293487327834,1488.653060046044,33.16859190906587
Richelen,2.565871962490509,0.2498637340362387,7.124768859990595,245.2782109003051,71.00592301075076,1.924753612883739,3.206990312097279,4.11017841390817,16830.0,0,2175,13.4,N,N,5.391,,0.228,,,,,,,,,0.924623,MBA,0.2398013380714468,1501.24266567996,63.57146479455948
,2.714454636997968,0.1321594337865236,8.394966263972236,31.83007717609367,281.3710955992526,2.355713849133113,3.073195424862822,4.47231190981999,7521.0,0.0,506,15.3,N,N,3.202,,0.157,,,,,,,,,1.35921,MBA,0.220384066058404,1633.511925061753,246.1267378955243
,2.809605434310759,0.1328379168804013,13.93100176129779,123.2130748988995,150.4364688597973,2.436383301161063,3.182827567460456,4.70951520749404,9362.0,0,296,15.9,N,N,4.616,,0.04,,,,,,,,,1.42889,MBA,0.2092840218031725,1720.1504295372,158.6187103706812
,3.187114401878052,0.1584165457651648,5.432534317369921,121.0408287406041,338.9591912817529,2.682222747374122,3.692006056381983,5.68990062548498,6661.0,0,81,16.8,N,N,2.467,,,,,,,,,,,1.70011,MBA,0.1732238132513159,2078.23620345839,210.8299832936193
,3.156263818319327,0.1435112876815835,4.193600203520311,11.98637553873023,319.5566976733641,2.703304333489529,3.609223303149125,5.6074853485613,6246.0,0,314,15.3,N,N,3.839,,0.091,6.808,,,,,,,,1.69375,MBA,0.1757697474181429,2048.134023562015,240.7357701900628
,2.579459662700764,0.0575449752142942,28.99811201568592,123.6326480880201,29.88595533667614,2.431024720344377,2.727894605057152,4.14287007432996,6400.0,0,190,16.0,N,N,3.963,,0.064,,,,,,,,,1.45956,MBA,0.2379090499300695,1513.183294649017,127.3482135334066
,3.047748020890527,0.1935239910706751,13.59970814420706,112.4663137634904,185.3133524386462,2.457935660110041,3.637560381671014,5.32079821521783,6368.0,0,219,15.4,N,N,4.785,,,,,,,,,,,1.44165,MBA,0.1852403048378343,1943.421548108314,265.9163582801164
,2.75317383213436,0.1293247504996416,7.363725565019302,227.6462898916029,233.9138558536397,2.397120313211441,3.109227351057278,4.56834245071701,6634.0,0,626,15.2,N,N,6.031,,0.048,,,,,,,,,1.4227,MBA,0.2157514008637554,1668.587080124388,340.7806453443714
,2.337992531922993,0.2071539163649904,7.730735222871473,206.2244976466366,130.83794678,1.853668222503045,2.82231684134294,3.57497395088246,1.0,9,6,16.2,N,N,2.82,,0.074,,,,,,,,,0.855061,MBA,0.275701668574189,1305.75923555982,204.930284050419
Maeharatorakichi,2.339897322431186,0.1434473421127253,10.14386116629492,31.34922606228592,133.474464318321,2.00424527071175,2.675549374150623,3.57934370172316,18310.0,0,1460,14.3,N,N,8.11,,0.045,13.0,,,,,,,,1.02439,MBA,0.2753650851951038,1307.355287054385,12.13982379957318
,3.237013469311776,0.0635026569687149,11.98138063111072,311.7050400256202,289.4629057265105,3.031454513366961,3.442572425256592,5.8240482199513,10628.0,0,1081,13.4,N,N,9.801,,0.096,,,,,,,,,2.04461,OMB,0.1692338809955454,2127.233612337213,68.63365495854954
,3.200033897439506,0.1049673468459904,15.35282721860372,212.4103921504241,139.1792666438077,2.864134829408047,3.535932965470965,5.72453309387221,8456.0,0.0,461,14.7,N,N,6.415,,0.052,,,,,,,,,1.87903,OMB,0.1721758381347493,2090.885712536823,68.171169276438
,2.319672804871625,0.1670896346332978,4.596975044731436,326.1188259685176,223.1348712186157,1.932079523436828,2.707266086306422,3.53303792009301,5672.0,0,145,17.6,N,N,1.635,,0.05,,,,,,,,,0.936479,MBA,0.2789741592531812,1290.442100313973,173.5443322422961
,5.263824193694302,0.0681276947042877,15.62776046425336,81.19806125746989,28.41636589330647,4.905211986049253,5.622436401339351,12.0770333631557,6737.0,0,303,12.6,N,N,17.927,,0.079,,,,,,,,,3.93047,TJN,0.0816116221368136,4411.136435892628,216.4464950792621
,3.148856568128537,0.1331379270277498,27.60623206064469,63.13592191985722,277.966154274636,2.729624332140189,3.568088804116885,5.5877571175864,5357.0,0,190,15.1,N,N,5.336,,0.068,,,,,,,,,1.87838,MBA,0.1763903230985983,2040.928287198431,318.0713874267527
,2.643345409869261,0.1139340087410765,5.956419763889945,74.43459945211596,215.8185587118678,2.342178470835532,2.94451234890299,4.29772949951498,8141.0,0,632,15.5,N,N,4.284,,0.055,,,,,,,,,1.32832,MBA,0.2293365097730764,1569.745699697847,64.67119030563539
Yucatan,2.46142203563928,0.1930731737455297,4.574868936124793,133.9718665116548,227.6021372827952,1.986187471291222,2.936656599987338,3.861778218276,10929.0,0,1678,14.1,N,N,8.722,,0.064,,,,,,,,,0.985544,MBA,0.2552260196359921,1410.514494225308,301.0185108681112
,3.124671214019792,0.0908708582526791,8.71077475883374,164.0505690347209,145.40411860426,2.840729659044373,3.408612768995212,5.52350424364589,7155.0,0,236,15.6,N,N,3.531,,0.068,,,,,,,,,1.83114,MBA,0.1784422062319222,2017.45992499166,239.8650838690503
,3.162827170119476,0.0828382153759276,8.653502501070136,219.9520108645557,171.5546461675911,2.900824211804283,3.424830128434669,5.62498532370093,7162.0,0.0,800,14.3,N,N,7.843,,0.072,,,,,,,,,1.90643,MBA,0.1752229075540181,2054.525889481764,180.2643020260299
